{
  "type": "FeatureCollection",
  "crs": {
    "type": "name",
    "properties": {
      "name": "EPSG:31256"
    }
  },
  "properties": {
    "study_area_id": "vienna_orthophoto_2024_35_4_c2",
    "geometry_crs": "EPSG:31256",
    "source_attribution": "Datenquelle: Stadt Wien - data.wien.gv.at",
    "source_license": "CC BY 4.0"
  },
  "features": [
    {
      "type": "Feature",
      "properties": {
        "building_id": "vienna-c2-5431645",
        "source_building_id": "5431645",
        "source_dataset": "City of Vienna Bauk\u00f6rpermodell (LOD0.4)",
        "source_feature_id": 4003660106
      },
      "geometry": {
        "type": "MultiPolygon",
        "coordinates": [
          [
            [
              [
                3664.994,
                341726.276
              ],
              [
                3659.795,
                341731.007
              ],
              [
                3647.945,
                341708.994
              ],
              [
                3647.658,
                341708.46
              ],
              [
                3652.84,
                341703.27
              ],
              [
                3653.85,
                341702.27
              ],
              [
                3653.977,
                341702.5016
              ],
              [
                3656.34,
                341706.81
              ],
              [
                3658.75,
                341705.07
              ],
              [
                3655.5566,
                341700.9233
              ],
              [
                3655.4,
                341700.72
              ],
              [
                3656.04,
                341700.08
              ],
              [
                3663.76,
                341692.37
              ],
              [
                3659.64,
                341688.35
              ],
              [
                3656.65,
                341685.43
              ],
              [
                3661.08,
                341681.75
              ],
              [
                3660.97,
                341681.58
              ],
              [
                3660.89,
                341681.4
              ],
              [
                3660.81,
                341681.21
              ],
              [
                3660.76,
                341681.02
              ],
              [
                3660.72,
                341680.82
              ],
              [
                3660.71,
                341680.62
              ],
              [
                3660.71,
                341680.42
              ],
              [
                3660.73,
                341680.22
              ],
              [
                3660.77,
                341680.03
              ],
              [
                3660.83,
                341679.84
              ],
              [
                3660.9,
                341679.65
              ],
              [
                3660.22,
                341678.94
              ],
              [
                3654.47,
                341683.3
              ],
              [
                3651.37,
                341680.28
              ],
              [
                3657.95,
                341673.54
              ],
              [
                3661.23,
                341677.41
              ],
              [
                3663.95,
                341675.4
              ],
              [
                3660.29,
                341671.14
              ],
              [
                3669.81,
                341661.531
              ],
              [
                3669.923,
                341661.644
              ],
              [
                3669.888,
                341661.746
              ],
              [
                3670.123,
                341662.03
              ],
              [
                3670.347,
                341661.856
              ],
              [
                3673.214,
                341665.476
              ],
              [
                3673.065,
                341665.615
              ],
              [
                3673.466,
                341666.109
              ],
              [
                3673.4,
                341666.182
              ],
              [
                3673.749,
                341666.62
              ],
              [
                3673.542,
                341666.807
              ],
              [
                3674.658,
                341668.199
              ],
              [
                3674.864,
                341668.045
              ],
              [
                3675.527,
                341668.855
              ],
              [
                3675.323,
                341669.04
              ],
              [
                3676.459,
                341670.47
              ],
              [
                3676.69,
                341670.308
              ],
              [
                3677.357,
                341671.144
              ],
              [
                3677.122,
                341671.312
              ],
              [
                3678.23,
                341672.74
              ],
              [
                3678.479,
                341672.569
              ],
              [
                3678.808,
                341672.982
              ],
              [
                3679.121,
                341673.375
              ],
              [
                3678.914,
                341673.553
              ],
              [
                3680.034,
                341674.996
              ],
              [
                3681.015,
                341674.229
              ],
              [
                3683.647,
                341677.529
              ],
              [
                3685.328,
                341679.637
              ],
              [
                3687.947,
                341682.921
              ],
              [
                3686.976,
                341683.745
              ],
              [
                3688.106,
                341685.134
              ],
              [
                3688.308,
                341684.97
              ],
              [
                3688.983,
                341685.801
              ],
              [
                3688.783,
                341685.968
              ],
              [
                3689.926,
                341687.395
              ],
              [
                3690.137,
                341687.227
              ],
              [
                3690.791,
                341688.05
              ],
              [
                3690.589,
                341688.224
              ],
              [
                3691.732,
                341689.648
              ],
              [
                3691.936,
                341689.487
              ],
              [
                3692.569,
                341690.29
              ],
              [
                3692.358,
                341690.475
              ],
              [
                3693.494,
                341691.908
              ],
              [
                3693.722,
                341691.749
              ],
              [
                3694.072,
                341692.167
              ],
              [
                3694.125,
                341692.144
              ],
              [
                3694.536,
                341692.609
              ],
              [
                3694.675,
                341692.526
              ],
              [
                3697.514,
                341696.07
              ],
              [
                3697.361,
                341696.227
              ],
              [
                3697.644,
                341696.566
              ],
              [
                3696.0288,
                341698.0358
              ],
              [
                3690.682,
                341702.902
              ],
              [
                3689.18,
                341701.29
              ],
              [
                3686.54,
                341703.56
              ],
              [
                3687.985,
                341705.356
              ],
              [
                3681.817,
                341710.968
              ],
              [
                3680.01,
                341708.76
              ],
              [
                3676.85,
                341711.26
              ],
              [
                3678.796,
                341713.717
              ],
              [
                3678.252,
                341714.212
              ],
              [
                3673.016,
                341718.976
              ],
              [
                3667.905,
                341723.627
              ],
              [
                3667.19,
                341722.61
              ],
              [
                3664.14,
                341724.92
              ],
              [
                3664.994,
                341726.276
              ]
            ],
            [
              [
                3663.85,
                341693.77
              ],
              [
                3671.63,
                341703.5
              ],
              [
                3678.57,
                341698
              ],
              [
                3671,
                341688.18
              ],
              [
                3663.85,
                341693.77
              ]
            ],
            [
              [
                3663.1,
                341711.77
              ],
              [
                3667.79,
                341717.55
              ],
              [
                3670.94,
                341715.07
              ],
              [
                3666.37,
                341709.09
              ],
              [
                3663.1,
                341711.77
              ]
            ],
            [
              [
                3667.03,
                341677.98
              ],
              [
                3668.71,
                341680.57
              ],
              [
                3672.18,
                341677.97
              ],
              [
                3670.1,
                341675.55
              ],
              [
                3667.03,
                341677.98
              ]
            ]
          ]
        ]
      }
    },
    {
      "type": "Feature",
      "properties": {
        "building_id": "vienna-c2-5404559",
        "source_building_id": "5404559",
        "source_dataset": "City of Vienna Bauk\u00f6rpermodell (LOD0.4)",
        "source_feature_id": 4006294118
      },
      "geometry": {
        "type": "Polygon",
        "coordinates": [
          [
            [
              3768.4541,
              341767.027
            ],
            [
              3762.781,
              341770.443
            ],
            [
              3757.0461,
              341761.238
            ],
            [
              3755.536,
              341758.814
            ],
            [
              3752.5681,
              341754.05
            ],
            [
              3751.19,
              341751.837
            ],
            [
              3748.077,
              341746.841
            ],
            [
              3747.422,
              341745.789
            ],
            [
              3745.5731,
              341742.821
            ],
            [
              3751.7511,
              341736.351
            ],
            [
              3754.281,
              341733.701
            ],
            [
              3762.0051,
              341725.612
            ],
            [
              3762.662,
              341726.125
            ],
            [
              3763.8131,
              341727.023
            ],
            [
              3772.0391,
              341733.443
            ],
            [
              3773.447,
              341731.596
            ],
            [
              3778.605,
              341735.577
            ],
            [
              3780.849,
              341737.31
            ],
            [
              3786.0691,
              341741.339
            ],
            [
              3784.6811,
              341743.181
            ],
            [
              3794.907,
              341750.888
            ],
            [
              3794.8591,
              341750.981
            ],
            [
              3794.8871,
              341751.035
            ],
            [
              3792.912,
              341752.311
            ],
            [
              3783.5901,
              341757.92
            ],
            [
              3781.8301,
              341756.64
            ],
            [
              3779.6,
              341759.77
            ],
            [
              3779.8401,
              341760.17
            ],
            [
              3776.8401,
              341761.98
            ],
            [
              3773.8301,
              341763.79
            ],
            [
              3768.4541,
              341767.027
            ]
          ]
        ]
      }
    },
    {
      "type": "Feature",
      "properties": {
        "building_id": "vienna-c2-5357776",
        "source_building_id": "5357776",
        "source_dataset": "City of Vienna Bauk\u00f6rpermodell (LOD0.4)",
        "source_feature_id": 4005238124
      },
      "geometry": {
        "type": "Polygon",
        "coordinates": [
          [
            [
              3961.803,
              342032.008
            ],
            [
              3952.358,
              342037.482
            ],
            [
              3949.21,
              342031.96
            ],
            [
              3946.37,
              342026.99
            ],
            [
              3945.72,
              342025.84
            ],
            [
              3956.86,
              342019.38
            ],
            [
              3957.37,
              342017.5
            ],
            [
              3946.36,
              342000
            ],
            [
              3943.55,
              341995.62
            ],
            [
              3941.787,
              341995.156
            ],
            [
              3941.69,
              341995.13
            ],
            [
              3931.68,
              342000
            ],
            [
              3930.658,
              342000.492
            ],
            [
              3930.333,
              342000
            ],
            [
              3926.665,
              341993.569
            ],
            [
              3939.01,
              341989.62
            ],
            [
              3953.445,
              341984.849
            ],
            [
              3953.669,
              341985.204
            ],
            [
              3953.618,
              341985.236
            ],
            [
              3962.996,
              342000
            ],
            [
              3963.171,
              342000.276
            ],
            [
              3963.308,
              342000.142
            ],
            [
              3963.556,
              342000.542
            ],
            [
              3963.439,
              342000.691
            ],
            [
              3964.88,
              342003.006
            ],
            [
              3966.128,
              342005.011
            ],
            [
              3967.642,
              342007.39
            ],
            [
              3967.794,
              342007.293
            ],
            [
              3968.014,
              342007.639
            ],
            [
              3967.862,
              342007.736
            ],
            [
              3970.765,
              342012.277
            ],
            [
              3971.45,
              342013.345
            ],
            [
              3977.396,
              342022.718
            ],
            [
              3977.458,
              342022.695
            ],
            [
              3977.54,
              342022.802
            ],
            [
              3977.655,
              342022.984
            ],
            [
              3977.491,
              342023.071
            ],
            [
              3977.362,
              342023.134
            ],
            [
              3977.311,
              342023.074
            ],
            [
              3972.652,
              342025.792
            ],
            [
              3972.691,
              342025.839
            ],
            [
              3967.811,
              342028.681
            ],
            [
              3961.861,
              342032.058
            ],
            [
              3961.803,
              342032.008
            ]
          ]
        ]
      }
    },
    {
      "type": "Feature",
      "properties": {
        "building_id": "vienna-c2-5521477",
        "source_building_id": "5521477",
        "source_dataset": "City of Vienna Bauk\u00f6rpermodell (LOD0.4)",
        "source_feature_id": 4004241567
      },
      "geometry": {
        "type": "MultiPolygon",
        "coordinates": [
          [
            [
              [
                3485.97,
                341923.976
              ],
              [
                3471.87,
                341928.17
              ],
              [
                3461.202,
                341907.794
              ],
              [
                3460.274,
                341906.022
              ],
              [
                3457.42,
                341900.57
              ],
              [
                3457.49,
                341900.53
              ],
              [
                3468.95,
                341895.78
              ],
              [
                3472.808,
                341902.954
              ],
              [
                3474.064,
                341905.289
              ],
              [
                3477.63,
                341911.92
              ],
              [
                3487.0999,
                341909.0699
              ],
              [
                3489.1999,
                341908.4399
              ],
              [
                3492.2097,
                341907.5355
              ],
              [
                3498.85,
                341905.54
              ],
              [
                3500,
                341909.44
              ],
              [
                3502.73,
                341918.88
              ],
              [
                3502.77,
                341918.98
              ],
              [
                3488.836,
                341923.124
              ],
              [
                3485.97,
                341923.976
              ]
            ],
            [
              [
                3475.42,
                341916.13
              ],
              [
                3476.1,
                341917.43
              ],
              [
                3478.46,
                341916.73
              ],
              [
                3477.9,
                341914.83
              ],
              [
                3475.42,
                341916.13
              ]
            ]
          ]
        ]
      }
    },
    {
      "type": "Feature",
      "properties": {
        "building_id": "vienna-c2-5404264",
        "source_building_id": "5404264",
        "source_dataset": "City of Vienna Bauk\u00f6rpermodell (LOD0.4)",
        "source_feature_id": 4003659129
      },
      "geometry": {
        "type": "Polygon",
        "coordinates": [
          [
            [
              3676.19,
              341973.31
            ],
            [
              3673.73,
              341974.61
            ],
            [
              3673.19,
              341973.2
            ],
            [
              3670.21,
              341970.62
            ],
            [
              3647.79,
              341968.4505
            ],
            [
              3647.7776,
              341968.425
            ],
            [
              3645.69,
              341959.62
            ],
            [
              3645.47,
              341958.69
            ],
            [
              3645.406,
              341958.421
            ],
            [
              3652.63,
              341959.13
            ],
            [
              3652.53,
              341960.15
            ],
            [
              3655.25,
              341960.42
            ],
            [
              3655.77,
              341955.21
            ],
            [
              3644.37,
              341954.08
            ],
            [
              3643.232,
              341949.26
            ],
            [
              3641.627,
              341942.458
            ],
            [
              3654.102,
              341943.695
            ],
            [
              3656.573,
              341943.94
            ],
            [
              3669.029,
              341945.176
            ],
            [
              3670.081,
              341948.291
            ],
            [
              3673.055,
              341957.09
            ],
            [
              3661.78,
              341955.97
            ],
            [
              3661.62,
              341957.26
            ],
            [
              3660.35,
              341957.15
            ],
            [
              3660.213,
              341958.668
            ],
            [
              3662.679,
              341958.965
            ],
            [
              3662.373,
              341961.292
            ],
            [
              3664.51,
              341961.5
            ],
            [
              3664.61,
              341960.49
            ],
            [
              3674.53,
              341961.47
            ],
            [
              3678.77,
              341972.52
            ],
            [
              3676.19,
              341973.31
            ]
          ]
        ]
      }
    },
    {
      "type": "Feature",
      "properties": {
        "building_id": "vienna-c2-5468479",
        "source_building_id": "5468479",
        "source_dataset": "City of Vienna Bauk\u00f6rpermodell (LOD0.4)",
        "source_feature_id": 4003659745
      },
      "geometry": {
        "type": "Polygon",
        "coordinates": [
          [
            [
              3821.5411,
              341819.595
            ],
            [
              3817.1131,
              341821.538
            ],
            [
              3812.53,
              341812.33
            ],
            [
              3814.5901,
              341811.3
            ],
            [
              3813.6701,
              341809.46
            ],
            [
              3811.61,
              341810.4799
            ],
            [
              3810.8399,
              341808.9338
            ],
            [
              3808.7899,
              341804.8199
            ],
            [
              3814.4101,
              341802.17
            ],
            [
              3817.07,
              341807.44
            ],
            [
              3823.7001,
              341804.4
            ],
            [
              3819.86,
              341799.6
            ],
            [
              3830.849,
              341794.338
            ],
            [
              3830.9891,
              341794.19
            ],
            [
              3834.604,
              341798.634
            ],
            [
              3834.9191,
              341798.461
            ],
            [
              3839.7781,
              341804.411
            ],
            [
              3839.5411,
              341804.652
            ],
            [
              3843.116,
              341809.25
            ],
            [
              3842.877,
              341810.237
            ],
            [
              3836.8461,
              341812.987
            ],
            [
              3836.89,
              341813.12
            ],
            [
              3834.212,
              341814.224
            ],
            [
              3834.1011,
              341814.039
            ],
            [
              3824.2321,
              341818.416
            ],
            [
              3824.28,
              341818.526
            ],
            [
              3823.73,
              341818.767
            ],
            [
              3823.6821,
              341818.657
            ],
            [
              3822.0911,
              341819.354
            ],
            [
              3822.139,
              341819.464
            ],
            [
              3821.5901,
              341819.705
            ],
            [
              3821.5411,
              341819.595
            ]
          ]
        ]
      }
    },
    {
      "type": "Feature",
      "properties": {
        "building_id": "vienna-c2-5455869",
        "source_building_id": "5455869",
        "source_dataset": "City of Vienna Bauk\u00f6rpermodell (LOD0.4)",
        "source_feature_id": 4003659099
      },
      "geometry": {
        "type": "MultiPolygon",
        "coordinates": [
          [
            [
              [
                3508.191,
                341981.228
              ],
              [
                3505.3018,
                341981.8148
              ],
              [
                3505.2544,
                341981.5689
              ],
              [
                3502.8499,
                341969.0999
              ],
              [
                3501.89,
                341964.12
              ],
              [
                3510.602,
                341962.265
              ],
              [
                3511,
                341962.18
              ],
              [
                3514.8,
                341961.392
              ],
              [
                3515.15,
                341963.33
              ],
              [
                3519.193,
                341962.75
              ],
              [
                3518.729,
                341960.578
              ],
              [
                3531.537,
                341957.924
              ],
              [
                3531.121,
                341958.843
              ],
              [
                3530.345,
                341960.594
              ],
              [
                3530.1018,
                341961.1409
              ],
              [
                3525.691,
                341971.062
              ],
              [
                3525.214,
                341972.156
              ],
              [
                3523.928,
                341975.176
              ],
              [
                3523.988,
                341975.198
              ],
              [
                3523.74,
                341975.618
              ],
              [
                3522.944,
                341977.42
              ],
              [
                3522.724,
                341977.941
              ],
              [
                3522.513,
                341978.361
              ],
              [
                3522.4339,
                341978.3319
              ],
              [
                3521.2096,
                341978.5812
              ],
              [
                3509.51,
                341980.96
              ],
              [
                3508.191,
                341981.228
              ]
            ],
            [
              [
                3507.98,
                341968.06
              ],
              [
                3509.35,
                341975.19
              ],
              [
                3516.01,
                341973.98
              ],
              [
                3516.71,
                341972.19
              ],
              [
                3515.69,
                341968.2
              ],
              [
                3513.88,
                341966.93
              ],
              [
                3507.98,
                341968.06
              ]
            ]
          ]
        ]
      }
    },
    {
      "type": "Feature",
      "properties": {
        "building_id": "vienna-c2-5291770",
        "source_building_id": "5291770",
        "source_dataset": "City of Vienna Bauk\u00f6rpermodell (LOD0.4)",
        "source_feature_id": 4005237867
      },
      "geometry": {
        "type": "Polygon",
        "coordinates": [
          [
            [
              3675.32,
              341630.22
            ],
            [
              3671.345,
              341636.602
            ],
            [
              3668.847,
              341634.875
            ],
            [
              3667.297,
              341633.803
            ],
            [
              3653.084,
              341623.977
            ],
            [
              3657.016,
              341614.121
            ],
            [
              3678.871,
              341618.283
            ],
            [
              3677.65,
              341625.2
            ],
            [
              3675.32,
              341630.22
            ]
          ]
        ]
      }
    },
    {
      "type": "Feature",
      "properties": {
        "building_id": "vienna-c2-5383501",
        "source_building_id": "5383501",
        "source_dataset": "City of Vienna Bauk\u00f6rpermodell (LOD0.4)",
        "source_feature_id": 4006294166
      },
      "geometry": {
        "type": "Polygon",
        "coordinates": [
          [
            [
              3814.4101,
              341802.17
            ],
            [
              3808.7899,
              341804.8199
            ],
            [
              3805.9199,
              341799.0299
            ],
            [
              3803.3209,
              341793.2928
            ],
            [
              3808.1569,
              341791.5058
            ],
            [
              3810.4849,
              341796.2828
            ],
            [
              3811.1849,
              341796.7788
            ],
            [
              3811.7989,
              341796.8748
            ],
            [
              3815.8478,
              341794.9998
            ],
            [
              3815.9409,
              341794.8808
            ],
            [
              3816.0178,
              341794.7508
            ],
            [
              3816.0759,
              341794.6118
            ],
            [
              3816.1159,
              341794.4658
            ],
            [
              3816.1358,
              341794.3158
            ],
            [
              3816.1358,
              341794.1648
            ],
            [
              3816.1179,
              341794.0238
            ],
            [
              3816.0819,
              341793.8858
            ],
            [
              3816.0288,
              341793.7528
            ],
            [
              3815.9608,
              341793.6278
            ],
            [
              3815.8769,
              341793.5128
            ],
            [
              3815.7788,
              341793.4088
            ],
            [
              3812.2199,
              341789.4208
            ],
            [
              3822.7501,
              341784.554
            ],
            [
              3823.4261,
              341785.37
            ],
            [
              3824.229,
              341786.341
            ],
            [
              3830.849,
              341794.338
            ],
            [
              3819.86,
              341799.6
            ],
            [
              3814.4101,
              341802.17
            ]
          ]
        ]
      }
    },
    {
      "type": "Feature",
      "properties": {
        "building_id": "vienna-c2-5716811",
        "source_building_id": "5716811",
        "source_dataset": "City of Vienna Bauk\u00f6rpermodell (LOD0.4)",
        "source_feature_id": 4003660047
      },
      "geometry": {
        "type": "Polygon",
        "coordinates": [
          [
            [
              3732.808,
              341733.847
            ],
            [
              3723.457,
              341741.635
            ],
            [
              3722.445,
              341740.195
            ],
            [
              3722.23,
              341740.323
            ],
            [
              3720.72,
              341737.95
            ],
            [
              3720.94,
              341737.83
            ],
            [
              3720.52,
              341737.17
            ],
            [
              3720.77,
              341735.9
            ],
            [
              3717.45,
              341730.65
            ],
            [
              3716.35,
              341730.57
            ],
            [
              3713.51,
              341726.08
            ],
            [
              3722.88,
              341718.06
            ],
            [
              3727.204,
              341724.935
            ],
            [
              3728.404,
              341726.843
            ],
            [
              3732.808,
              341733.847
            ]
          ]
        ]
      }
    }
  ]
}
